COMMENT,ORIGINATOR,NORAD_CAT_ID,OBJECT_NAME,OBJECT_TYPE,CLASSIFICATION_TYPE,INTLDES,EPOCH,EPOCH_MICROSECONDS,MEAN_MOTION,ECCENTRICITY,INCLINATION,RA_OF_ASC_NODE,ARG_OF_PERICENTER,MEAN_ANOMALY,EPHEMERIS_TYPE,ELEMENT_SET_NO,REV_AT_EPOCH,BSTAR,MEAN_MOTION_DOT,MEAN_MOTION_DDOT,FILE,TLE_LINE0,TLE_LINE1,TLE_LINE2,OBJECT_ID,OBJECT_NUMBER,SEMIMAJOR_AXIS,PERIOD,APOGEE,PERIGEE,DECAYED
"GENERATED VIA SPACETRACK.ORG API","18 SPCS","12345","COSMOS 1174 DEB","DEBRIS","U","80030T","1981-11-30 04:43:23","20608","13.80885887","0.0734124","66.0703","246.466","293.1776","59.3299","0","999","53035","0.00005195","0.0002367","0","34334","0 COSMOS 1174 DEB","1 12345U 80030  T 81334.19679422  .00023670 +00000-0 +05195-3 0  9996","2 12345 066.0703 246.4660 0734124 293.1776 059.3299 13.80885887530352","1980-030T","12345","7338.888","104.281","1499.518","421.988","1"
"GENERATED VIA SPACETRACK.ORG API","18 SPCS","12345","COSMOS 1174 DEB","DEBRIS","U","80030T","1981-11-29 04:23:16","257984","13.80840683","0.0734251","66.0706","248.9991","293.7251","58.8126","0","999","53021","0.0000572","0.00024146","0","34334","0 COSMOS 1174 DEB","1 12345U 80030  T 81333.18282706  .00024146 +00000-0 +05720-3 0  9992","2 12345 066.0706 248.9991 0734251 293.7251 058.8126 13.80840683530217","1980-030T","12345","7339.048","104.284","1499.783","422.043","1"
"GENERATED VIA SPACETRACK.ORG API","18 SPCS","12345","COSMOS 1174 DEB","DEBRIS","U","80030T","1981-11-28 05:47:24","671328","13.80794907","0.0732532","66.0771","251.3633","294.088","58.5065","0","999","53008","0.00005692","0.00023802","0","34334","0 COSMOS 1174 DEB","1 12345U 80030  T 81332.24125777  .00023802 +00000-0 +05692-3 0  9998","2 12345 066.0771 251.3633 0732532 294.0880 058.5065 13.80794907530083","1980-030T","12345","7339.210","104.288","1498.696","423.455","1"
"GENERATED VIA SPACETRACK.ORG API","18 SPCS","12345","COSMOS 1174 DEB","DEBRIS","U","80030T","1981-11-26 05:06:57","129408","13.80698586","0.0734808","66.0723","256.4232","295.3771","57.2652","0","999","52980","0.00008007","0.00026274","0","34334","0 COSMOS 1174 DEB","1 12345U 80030  T 81330.21316122  .00026274 +00000-0 +08007-3 0  9998","2 12345 066.0723 256.4232 0734808 295.3771 057.2652 13.80698586529804","1980-030T","12345","7339.552","104.295","1500.733","422.101","1"
"GENERATED VIA SPACETRACK.ORG API","18 SPCS","12345","COSMOS 1174 DEB","DEBRIS","U","80030T","1981-11-25 04:46:38","385696","13.80648804","0.0735451","66.0721","258.9548","295.9261","56.7464","0","999","52966","0.00008533","0.00026844","0","34334","0 COSMOS 1174 DEB","1 12345U 80030  T 81329.19905539  .00026844 +00000-0 +08533-3 0  9996","2 12345 066.0721 258.9548 0735451 295.9261 056.7464 13.80648804529661","1980-030T","12345","7339.728","104.299","1501.394","421.792","1"
"GENERATED VIA SPACETRACK.ORG API","18 SPCS","12345","COSMOS 1174 DEB","DEBRIS","U","80030T","1981-11-24 04:26:16","607616","13.80596161","0.0735611","66.0721","261.4877","296.4905","56.2188","0","999","52952","0.00009327","0.00027574","0","34334","0 COSMOS 1174 DEB","1 12345U 80030  T 81328.18491444  .00027574 +00000-0 +09327-3 0  9992","2 12345 066.0721 261.4877 0735611 296.4905 056.2188 13.80596161529525","1980-030T","12345","7339.915","104.303","1501.712","421.847","1"
"GENERATED VIA SPACETRACK.ORG API","18 SPCS","12345","COSMOS 1174 DEB","DEBRIS","U","80030T","1981-11-23 05:50:10","440959","13.80551529","0.0736134","66.0716","263.8393","297.0218","55.7171","0","999","52939","0.00002008","0.00030163","0","34334","0 COSMOS 1174 DEB","1 12345U 80030  T 81327.24317640  .00030163 +00000-0 +02008-3 0  9990","2 12345 066.0716 263.8393 0736134 297.0218 055.7171 13.80551529529393","1980-030T","12345","7340.073","104.306","1502.266","421.610","1"
"GENERATED VIA SPACETRACK.ORG API","18 SPCS","12345","COSMOS 1174 DEB","DEBRIS","U","80030T","1981-11-22 02:01:04","137888","13.80484104","0.073566","66.0723","266.7373","297.5797","55.2416","0","999","52923","0.00003396","0.00031301","0","34334","0 COSMOS 1174 DEB","1 12345U 80030  T 81326.08407567  .00031301 +00000-0 +03396-3 0  9995","2 12345 066.0723 266.7373 0735660 297.5797 055.2416 13.80484104529235","1980-030T","12345","7340.312","104.311","1502.174","422.179","1"
"GENERATED VIA SPACETRACK.ORG API","18 SPCS","12345","COSMOS 1174 DEB","DEBRIS","U","80030T","1981-11-21 06:53:29","773824","13.80445671","0.0736111","66.0717","268.7298","298.0288","54.7901","0","999","52912","0.00007554","0.00035274","0","34334","0 COSMOS 1174 DEB","1 12345U 80030  T 81325.28715016  .00035274 +00000-0 +07554-3 0  9990","2 12345 066.0717 268.7298 0736111 298.0288 054.7901 13.80445671529126","1980-030T","12345","7340.448","104.314","1502.652","421.975","1"
"GENERATED VIA SPACETRACK.ORG API","18 SPCS","12345","COSMOS 1174 DEB","DEBRIS","U","80030T","1981-11-20 22:11:52","377792","13.8042202","0.0735841","66.0721","269.6352","298.2209","54.6381","0","999","52907","0.00008341","0.00035918","0","34334","0 COSMOS 1174 DEB","1 12345U 80030  T 81324.92491178  .00035918 +00000-0 +08341-3 0  9990","2 12345 066.0721 269.6352 0735841 298.2209 054.6381 13.80422020529074","1980-030T","12345","7340.532","104.316","1502.543","422.251","1"
"GENERATED VIA SPACETRACK.ORG API","18 SPCS","12345","COSMOS 1174 DEB","DEBRIS","U","80030T","1981-11-19 23:35:35","606399","13.80362034","0.0736188","66.0715","271.9865","298.7241","54.1706","0","999","52894","0.00001546","0.00038942","0","34334","0 COSMOS 1174 DEB","1 12345U 80030  T 81323.98305100  .00038942 +00000-0 +01546-3 0  9994","2 12345 066.0715 271.9865 0736188 298.7241 054.1706 13.80362034528947","1980-030T","12345","7340.745","104.320","1503.026","422.193","1"
"GENERATED VIA SPACETRACK.ORG API","18 SPCS","12345","COSMOS 1174 DEB","DEBRIS","U","80030T","1981-11-19 06:12:15","41952","13.80313778","0.0736475","66.0711","273.7952","299.113","53.778","0","999","52884","0.00004542","0.00041771","0","34334","0 COSMOS 1174 DEB","1 12345U 80030  T 81323.25850743  .00041771 +00000-0 +04542-3 0  9995","2 12345 066.0711 273.7952 0736475 299.1130 053.7780 13.80313778528848","1980-030T","12345","7340.916","104.324","1503.421","422.141","1"
"GENERATED VIA SPACETRACK.ORG API","18 SPCS","12345","COSMOS 1174 DEB","DEBRIS","U","80030T","1981-11-18 07:35:51","637631","13.80238533","0.0736658","66.0722","276.149","299.6399","53.2942","0","999","52871","0.00005852","0.00042944","0","34334","0 COSMOS 1174 DEB","1 12345U 80030  T 81322.31656988  .00042944 +00000-0 +05852-3 0  9994","2 12345 066.0722 276.1490 0736658 299.6399 053.2942 13.80238533528715","1980-030T","12345","7341.182","104.330","1503.842","422.253","1"
"GENERATED VIA SPACETRACK.ORG API","18 SPCS","12345","COSMOS 1174 DEB","DEBRIS","U","80030T","1981-11-18 00:38:30","179616","13.80213356","0.0736721","66.0719","276.872","299.7903","53.1846","0","999","52867","0.00005814","0.00042889","0","34334","0 COSMOS 1174 DEB","1 12345U 80030  T 81322.02673819  .00042889 +00000-0 +05814-3 0  9990","2 12345 066.0719 276.8720 0736721 299.7903 053.1846 13.80213356528670","1980-030T","12345","7341.272","104.332","1503.984","422.290","1"
"GENERATED VIA SPACETRACK.ORG API","18 SPCS","12345","COSMOS 1174 DEB","DEBRIS","U","80030T","1981-11-17 07:15:02","714399","13.80158997","0.0737199","66.0714","278.6817","300.1904","52.7792","0","999","52857","0.00008699","0.00045661","0","34334","0 COSMOS 1174 DEB","1 12345U 80030  T 81321.30211475  .00045661 +00000-0 +08699-3 0  9991","2 12345 066.0714 278.6817 0737199 300.1904 052.7792 13.80158997528573","1980-030T","12345","7341.465","104.336","1504.542","422.118","1"
"GENERATED VIA SPACETRACK.ORG API","18 SPCS","12345","COSMOS 1174 DEB","DEBRIS","U","80030T","1981-11-17 00:17:39","734879","13.80133629","0.0737052","66.0713","279.4051","300.3422","52.6683","0","999","52853","0.00009131","0.00045982","0","34334","0 COSMOS 1174 DEB","1 12345U 80030  T 81321.01226545  .00045982 +00000-0 +09131-3 0  9991","2 12345 066.0713 279.4051 0737052 300.3422 052.6683 13.80133629528535","1980-030T","12345","7341.554","104.338","1504.530","422.309","1"
"GENERATED VIA SPACETRACK.ORG API","18 SPCS","12345","COSMOS 1174 DEB","DEBRIS","U","80030T","1981-11-16 06:54:08","529408","13.80075359","0.0737324","66.0711","281.2145","300.7134","52.2935","0","999","52843","0.00002384","0.00049026","0","34334","0 COSMOS 1174 DEB","1 12345U 80030  T 81320.28759872  .00049026 +00000-0 +02384-3 0  9999","2 12345 066.0711 281.2145 0737324 300.7134 052.2935 13.80075359528434","1980-030T","12345","7341.761","104.342","1504.952","422.300","1"
"GENERATED VIA SPACETRACK.ORG API","18 SPCS","12345","COSMOS 1174 DEB","DEBRIS","U","80030T","1981-11-15 06:33:09","42047","13.79975414","0.07374","66.071","283.7476","301.2776","51.7737","0","999","52829","0.00002867","0.00049334","0","34334","0 COSMOS 1174 DEB","1 12345U 80030  T 81319.27302132  .00049334 +00000-0 +02867-3 0  9997","2 12345 066.0710 283.7476 0737400 301.2776 051.7737 13.79975414528297","1980-030T","12345","7342.116","104.350","1505.388","422.573","1"
"GENERATED VIA SPACETRACK.ORG API","18 SPCS","12345","COSMOS 1174 DEB","DEBRIS","U","80030T","1981-11-14 21:51:20","718143","13.79939651","0.0737591","66.0701","284.6504","301.4691","51.6105","0","999","52824","0.00002822","0.00049296","0","34334","0 COSMOS 1174 DEB","1 12345U 80030  T 81318.91065646  .00049296 +00000-0 +02822-3 0  9991","2 12345 066.0701 284.6504 0737591 301.4691 051.6105 13.79939651528244","1980-030T","12345","7342.242","104.352","1505.665","422.550","1"
"GENERATED VIA SPACETRACK.ORG API","18 SPCS","12345","COSMOS 1174 DEB","DEBRIS","U","80030T","1981-11-14 04:27:41","400576","13.79874134","0.0737754","66.0694","286.4577","301.8401","51.2837","0","999","52814","0.00005196","0.00051459","0","34334","0 COSMOS 1174 DEB","1 12345U 80030  T 81318.18589584  .00051459 +00000-0 +05196-3 0  9993","2 12345 066.0694 286.4577 0737754 301.8401 051.2837 13.79874134528140","1980-030T","12345","7342.475","104.357","1506.034","422.646","1"
